IRIDIUM 26              
1 24903U 97043A   25243.24226609  .00000524  00000+0  16967-3 0  9990
2 24903  86.3898  79.0719 0002058  94.0598 266.0835 14.37192782467523
IRIDIUM 22              
1 24907U 97043E   25243.09488016  .00000474  00000+0  15636-3 0  9995
2 24907  86.3903  82.7410 0002186  90.2322 269.9125 14.36000434467523
DUMMY MASS 1            
1 24925U 97048A   25243.11304144  .00000553  00000+0  58564-4 0  9998
2 24925  86.3308 100.6814 0004673 227.0441 133.0393 14.87038649516264
DUMMY MASS 2            
1 24926U 97048B   25243.08767410  .00000541  00000+0  57594-4 0  9993
2 24926  86.3310 102.3156 0005177 245.6477 114.4208 14.86790481516032
IRIDIUM 29              
1 24944U 97051A   25243.16065270  .00000543  00000+0  17844-3 0  9996
2 24944  86.3936 112.4556 0002257  82.0877 278.0577 14.36520072464035
IRIDIUM 33              
1 24946U 97051C   25243.15525978  .00000316  00000+0  10438-3 0  9993
2 24946  86.3849 111.7242 0007510 178.3225 181.7998 14.34930827463494
IRIDIUM 28              
1 24948U 97051E   25243.15639114  .00000450  00000+0  14396-3 0  9999
2 24948  86.3937 109.9289 0001981 100.6182 259.5239 14.37429645464611
IRIDIUM 36              
1 24967U 97056C   25243.17756454  .00000473  00000+0  15117-3 0  9991
2 24967  86.4008 141.5266 0002302  90.5744 269.5717 14.37657675462995
